start=new Date('2023-03-04T00:00:00.000Z').valueOf();
sats=[{"REV_AT_EPOCH":"5691","FILE":"3850400","OBJECT_NAME":"STARLINK-3536","RCS_SIZE":"LARGE","TLE_LINE2":"2 51888  53.2150 265.4132 0000919  71.9561 288.1532 15.08860067 56910","MEAN_ANOMALY":"288.1532","RA_OF_ASC_NODE":"265.4132","COUNTRY_CODE":"US","INCLINATION":"53.2150","TLE_LINE1":"1 51888U 22022AN  23062.86261260  .00010181  00000-0  65649-3 0  9996","DECAY_DATE":null,"ECCENTRICITY":"0.00009190","CLASSIFICATION_TYPE":"U","MEAN_MOTION_DDOT":"0.0000000000000","OBJECT_TYPE":"PAYLOAD","TIME_SYSTEM":"UTC","EPHEMERIS_TYPE":"0","REF_FRAME":"TEME","LAUNCH_DATE":"2022-03-03","APOAPSIS":"540.320","PERIOD":"95.436","PERIAPSIS":"539.048","GP_ID":"227435297","EPOCH":"2023-03-03T20:42:09.728640","SEMIMAJOR_AXIS":"6917.819","NORAD_CAT_ID":"51888","ARG_OF_PERICENTER":"71.9561","ELEMENT_SET_NO":"999","MEAN_MOTION":"15.08860067","MEAN_ELEMENT_THEORY":"SGP4","BSTAR":"0.00065649000000","MEAN_MOTION_DOT":"0.00010181","CENTER_NAME":"EARTH","OBJECT_ID":"2022-022AN","SITE":"AFETR"},{"REV_AT_EPOCH":"5690","OBJECT_NAME":"STARLINK-3547","FILE":"3850400","TLE_LINE2":"2 51889  53.2133 265.5015 0000924  89.3535 270.7563 15.08857995 56909","RCS_SIZE":"LARGE","MEAN_ANOMALY":"270.7563","RA_OF_ASC_NODE":"265.5015","COUNTRY_CODE":"US","INCLINATION":"53.2133","TLE_LINE1":"1 51889U 22022AP  23062.84421344  .00005364  00000-0  35468-3 0  9999","DECAY_DATE":null,"ECCENTRICITY":"0.00009240","CLASSIFICATION_TYPE":"U","MEAN_MOTION_DDOT":"0.0000000000000","OBJECT_TYPE":"PAYLOAD","TIME_SYSTEM":"UTC","EPHEMERIS_TYPE":"0","REF_FRAME":"TEME","LAUNCH_DATE":"2022-03-03","APOAPSIS":"540.330","PERIOD":"95.436","PERIAPSIS":"539.051","GP_ID":"227435048","EPOCH":"2023-03-03T20:15:40.041216","SEMIMAJOR_AXIS":"6917.825","NORAD_CAT_ID":"51889","ARG_OF_PERICENTER":"89.3535","ELEMENT_SET_NO":"999","MEAN_MOTION":"15.08857995","MEAN_ELEMENT_THEORY":"SGP4","BSTAR":"0.00035468000000","MEAN_MOTION_DOT":"0.00005364","CENTER_NAME":"EARTH","OBJECT_ID":"2022-022AP","SITE":"AFETR"},{"MEAN_MOTION":"15.08867867","ARG_OF_PERICENTER":"70.1801","ELEMENT_SET_NO":"999","SITE":"AFETR","BSTAR":"0.00070804000000","MEAN_ELEMENT_THEORY":"SGP4","MEAN_MOTION_DOT":"0.00011007","CENTER_NAME":"EARTH","OBJECT_ID":"2022-022AQ","LAUNCH_DATE":"2022-03-03","APOAPSIS":"540.412","PERIOD":"95.436","EPHEMERIS_TYPE":"0","REF_FRAME":"TEME","GP_ID":"227433797","EPOCH":"2023-03-03T20:26:15.515808","SEMIMAJOR_AXIS":"6917.795","NORAD_CAT_ID":"51890","PERIAPSIS":"538.908","TLE_LINE1":"1 51890U 22022AQ  23062.85156847  .00011007  00000-0  70804-3 0  9999","INCLINATION":"53.2143","DECAY_DATE":null,"ECCENTRICITY":"0.00010870","OBJECT_TYPE":"PAYLOAD","TIME_SYSTEM":"UTC","CLASSIFICATION_TYPE":"U","MEAN_MOTION_DDOT":"0.0000000000000","FILE":"3850400","OBJECT_NAME":"STARLINK-3519","RCS_SIZE":"LARGE","TLE_LINE2":"2 51890  53.2143 265.4674 0001087  70.1801 289.9308 15.08867867 56905","REV_AT_EPOCH":"5690","MEAN_ANOMALY":"289.9308","RA_OF_ASC_NODE":"265.4674","COUNTRY_CODE":"US"},{"DECAY_DATE":null,"INCLINATION":"53.2133","TLE_LINE1":"1 51891U 22022AR  23062.84053150  .00009757  00000-0  62992-3 0  9990","ECCENTRICITY":"0.00014610","TIME_SYSTEM":"UTC","OBJECT_TYPE":"PAYLOAD","MEAN_MOTION_DDOT":"0.0000000000000","CLASSIFICATION_TYPE":"U","OBJECT_NAME":"STARLINK-3549","FILE":"3850400","RCS_SIZE":"LARGE","TLE_LINE2":"2 51891  53.2133 265.5155 0001461  77.0996 283.0159 15.08862083 56956","REV_AT_EPOCH":"5695","RA_OF_ASC_NODE":"265.5155","MEAN_ANOMALY":"283.0159","COUNTRY_CODE":"US","MEAN_MOTION":"15.08862083","ARG_OF_PERICENTER":"77.0996","ELEMENT_SET_NO":"999","SITE":"AFETR","MEAN_MOTION_DOT":"0.00009757","MEAN_ELEMENT_THEORY":"SGP4","BSTAR":"0.00062992000000","OBJECT_ID":"2022-022AR","CENTER_NAME":"EARTH","LAUNCH_DATE":"2022-03-03","PERIOD":"95.436","APOAPSIS":"540.689","EPHEMERIS_TYPE":"0","REF_FRAME":"TEME","EPOCH":"2023-03-03T20:10:21.921600","GP_ID":"227434047","NORAD_CAT_ID":"51891","SEMIMAJOR_AXIS":"6917.813","PERIAPSIS":"538.667"},{"COUNTRY_CODE":"US","MEAN_ANOMALY":"272.0103","RA_OF_ASC_NODE":"265.1876","RCS_SIZE":"LARGE","TLE_LINE2":"2 51892  53.2127 265.1876 0001066  88.1011 272.0103 15.08864888 56916","FILE":"3850400","OBJECT_NAME":"STARLINK-3587","REV_AT_EPOCH":"5691","OBJECT_TYPE":"PAYLOAD","TIME_SYSTEM":"UTC","CLASSIFICATION_TYPE":"U","MEAN_MOTION_DDOT":"0.0000000000000","ECCENTRICITY":"0.00010660","TLE_LINE1":"1 51892U 22022AS  23062.91412912  .00011620  00000-0  74647-3 0  9996","INCLINATION":"53.2127","DECAY_DATE":null,"SEMIMAJOR_AXIS":"6917.804","NORAD_CAT_ID":"51892","GP_ID":"227434798","EPOCH":"2023-03-03T21:56:20.755968","PERIAPSIS":"538.932","PERIOD":"95.436","APOAPSIS":"540.407","LAUNCH_DATE":"2022-03-03","REF_FRAME":"TEME","EPHEMERIS_TYPE":"0","SITE":"AFETR","CENTER_NAME":"EARTH","OBJECT_ID":"2022-022AS","MEAN_ELEMENT_THEORY":"SGP4","BSTAR":"0.00074647000000","MEAN_MOTION_DOT":"0.00011620","MEAN_MOTION":"15.08864888","ELEMENT_SET_NO":"999","ARG_OF_PERICENTER":"88.1011"},{"REV_AT_EPOCH":"5696","OBJECT_NAME":"STARLINK-3579","FILE":"3850400","TLE_LINE2":"2 51893  53.2146 265.5492 0001536  88.9270 271.1898 15.08862583 56969","RCS_SIZE":"LARGE","RA_OF_ASC_NODE":"265.5492","MEAN_ANOMALY":"271.1898","COUNTRY_CODE":"US","DECAY_DATE":null,"INCLINATION":"53.2146","TLE_LINE1":"1 51893U 22022AT  23062.83317150  .00006196  00000-0  40677-3 0  9994","ECCENTRICITY":"0.00015360","MEAN_MOTION_DDOT":"0.0000000000000","CLASSIFICATION_TYPE":"U","TIME_SYSTEM":"UTC","OBJECT_TYPE":"PAYLOAD","EPHEMERIS_TYPE":"0","REF_FRAME":"TEME","LAUNCH_DATE":"2022-03-03","PERIOD":"95.436","APOAPSIS":"540.739","PERIAPSIS":"538.614","EPOCH":"2023-03-03T19:59:46.017600","GP_ID":"227435548","NORAD_CAT_ID":"51893","SEMIMAJOR_AXIS":"6917.811","ARG_OF_PERICENTER":"88.9270","ELEMENT_SET_NO":"999","MEAN_MOTION":"15.08862583","MEAN_MOTION_DOT":"0.00006196","MEAN_ELEMENT_THEORY":"SGP4","BSTAR":"0.00040677000000","OBJECT_ID":"2022-022AT","CENTER_NAME":"EARTH","SITE":"AFETR"},{"EPHEMERIS_TYPE":"0","REF_FRAME":"TEME","LAUNCH_DATE":"2022-03-03","PERIOD":"95.436","APOAPSIS":"540.727","PERIAPSIS":"538.659","GP_ID":"227434297","EPOCH":"2023-03-03T20:05:04.104384","SEMIMAJOR_AXIS":"6917.828","NORAD_CAT_ID":"51894","ARG_OF_PERICENTER":"83.4251","ELEMENT_SET_NO":"999","MEAN_MOTION":"15.08857126","BSTAR":"0.00041351000000","MEAN_ELEMENT_THEORY":"SGP4","MEAN_MOTION_DOT":"0.00006302","CENTER_NAME":"EARTH","OBJECT_ID":"2022-022AU","SITE":"AFETR","REV_AT_EPOCH":"5696","FILE":"3850400","OBJECT_NAME":"STARLINK-3595","TLE_LINE2":"2 51894  53.2131 265.5330 0001495  83.4251 276.6911 15.08857126 56961","RCS_SIZE":"LARGE","MEAN_ANOMALY":"276.6911","RA_OF_ASC_NODE":"265.5330","COUNTRY_CODE":"US","INCLINATION":"53.2131","TLE_LINE1":"1 51894U 22022AU  23062.83685306  .00006302  00000-0  41351-3 0  9995","DECAY_DATE":null,"ECCENTRICITY":"0.00014950","CLASSIFICATION_TYPE":"U","MEAN_MOTION_DDOT":"0.0000000000000","OBJECT_TYPE":"PAYLOAD","TIME_SYSTEM":"UTC"},{"ECCENTRICITY":"0.00004850","INCLINATION":"53.2134","TLE_LINE1":"1 51895U 22022AV  23062.69701486  .00011560  00000-0  74282-3 0  9999","DECAY_DATE":null,"CLASSIFICATION_TYPE":"U","MEAN_MOTION_DDOT":"0.0000000000000","OBJECT_TYPE":"PAYLOAD","TIME_SYSTEM":"UTC","REV_AT_EPOCH":"5688","TLE_LINE2":"2 51895  53.2134 266.1581 0000485 103.0703 257.0343 15.08859656 56882","RCS_SIZE":"LARGE","OBJECT_NAME":"STARLINK-3594","FILE":"3850400","COUNTRY_CODE":"US","MEAN_ANOMALY":"257.0343","RA_OF_ASC_NODE":"266.1581","ELEMENT_SET_NO":"999","ARG_OF_PERICENTER":"103.0703","MEAN_MOTION":"15.08859656","CENTER_NAME":"EARTH","OBJECT_ID":"2022-022AV","BSTAR":"0.00074282000000","MEAN_ELEMENT_THEORY":"SGP4","MEAN_MOTION_DOT":"0.00011560","SITE":"AFETR","REF_FRAME":"TEME","EPHEMERIS_TYPE":"0","APOAPSIS":"540.021","PERIOD":"95.436","LAUNCH_DATE":"2022-03-03","PERIAPSIS":"539.350","SEMIMAJOR_AXIS":"6917.820","NORAD_CAT_ID":"51895","GP_ID":"227434546","EPOCH":"2023-03-03T16:43:42.083904"},{"PERIAPSIS":"538.672","NORAD_CAT_ID":"51896","SEMIMAJOR_AXIS":"6917.790","EPOCH":"2023-03-03T19:55:50.666592","GP_ID":"227435298","REF_FRAME":"TEME","EPHEMERIS_TYPE":"0","PERIOD":"95.436","APOAPSIS":"540.637","LAUNCH_DATE":"2022-03-03","OBJECT_ID":"2022-022AW","CENTER_NAME":"EARTH","MEAN_MOTION_DOT":"0.00015148","BSTAR":"0.00096704000000","MEAN_ELEMENT_THEORY":"SGP4","SITE":"AFETR","ELEMENT_SET_NO":"999","ARG_OF_PERICENTER":"88.8475","MEAN_MOTION":"15.08869640","COUNTRY_CODE":"US","RA_OF_ASC_NODE":"265.5617","MEAN_ANOMALY":"271.2680","REV_AT_EPOCH":"5695","TLE_LINE2":"2 51896  53.2123 265.5617 0001420  88.8475 271.2680 15.08869640 56954","RCS_SIZE":"LARGE","OBJECT_NAME":"STARLINK-3593","FILE":"3850400","MEAN_MOTION_DDOT":"0.0000000000000","CLASSIFICATION_TYPE":"U","TIME_SYSTEM":"UTC","OBJECT_TYPE":"PAYLOAD","ECCENTRICITY":"0.00014200","DECAY_DATE":null,"INCLINATION":"53.2123","TLE_LINE1":"1 51896U 22022AW  23062.83044753  .00015148  00000-0  96704-3 0  9992"},{"TLE_LINE1":"1 51897U 22022AX  23062.56085620  .00012913  00000-0  82723-3 0  9994","INCLINATION":"53.2136","DECAY_DATE":null,"ECCENTRICITY":"0.00009900","CLASSIFICATION_TYPE":"U","MEAN_MOTION_DDOT":"0.0000000000000","OBJECT_TYPE":"PAYLOAD","TIME_SYSTEM":"UTC","REV_AT_EPOCH":"5686","FILE":"3850163","OBJECT_NAME":"STARLINK-3598","RCS_SIZE":"LARGE","TLE_LINE2":"2 51897  53.2136 266.7716 0000990  89.4064 270.7041 15.08870326 56862","MEAN_ANOMALY":"270.7041","RA_OF_ASC_NODE":"266.7716","COUNTRY_CODE":"US","ARG_OF_PERICENTER":"89.4064","ELEMENT_SET_NO":"999","MEAN_MOTION":"15.08870326","BSTAR":"0.00082723000000","MEAN_ELEMENT_THEORY":"SGP4","MEAN_MOTION_DOT":"0.00012913","CENTER_NAME":"EARTH","OBJECT_ID":"2022-022AX","SITE":"AFETR","EPHEMERIS_TYPE":"0","REF_FRAME":"TEME","LAUNCH_DATE":"2022-03-03","PERIOD":"95.436","APOAPSIS":"540.338","PERIAPSIS":"538.968","GP_ID":"227403064","EPOCH":"2023-03-03T13:27:37.975680","SEMIMAJOR_AXIS":"6917.788","NORAD_CAT_ID":"51897"}];
